ONEWEB-0589             
1 54655U 22166P   25031.55651626  .00000091  00000+0  18783-3 0  9998
2 54655  87.9339 343.9508 0001303  54.6962 305.4294 13.21823592105275
ONEWEB-0590             
1 54656U 22166Q   25031.80706527  .00000134  00000+0  29290-3 0  9991
2 54656  87.9326 343.8999 0002117  75.5640 284.5729 13.21866191105759
ONEWEB-0591             
1 54657U 22166R   25031.59281288  .00000122  00000+0  26495-3 0  9991
2 54657  87.9339 343.9447 0001780  75.7861 284.3471 13.21825998105296
ONEWEB-0592             
1 54658U 22166S   25031.59594912  .00000099  00000+0  20828-3 0  9990
2 54658  87.9336 343.9015 0001814  75.3902 284.7433 13.21823156105178
ONEWEB-0593             
1 54659U 22166T   25031.84667864 -.00000088  00000+0 -24456-3 0  9997
2 54659  87.9337 343.8853 0001657  75.1459 284.9858 13.21828106105789
ONEWEB-0594             
1 54660U 22166U   25031.56282017  .00000115  00000+0  24758-3 0  9995
2 54660  87.9342 343.9495 0001790  82.8288 277.3049 13.21826714105751
ONEWEB-0595             
1 54661U 22166V   25031.84354065 -.00000044  00000+0 -13729-3 0  9999
2 54661  87.9338 343.8756 0002004  81.8164 278.3197 13.21824475105776
ONEWEB-0596             
1 54662U 22166W   25031.58964162  .00000068  00000+0  13234-3 0  9991
2 54662  87.9341 343.9358 0001850  72.9408 287.1929 13.21825209105272
